IRIDIUM 39              
1 25042U 97069D   25184.56192746  .00000409  00000+0  10185-3 0  9994
2 25042  86.3921 204.1137 0015613 249.8107 110.1418 14.49232788451339
IRIDIUM 38              
1 25043U 97069E   25184.52001494  .00000291  00000+0  89372-4 0  9994
2 25043  86.3953 226.2854 0003918  70.6426 289.5195 14.38126961448304
IRIDIUM 42              
1 25077U 97077A   25184.68560293  .00000219  00000+0  68094-4 0  9992
2 25077  86.3955 232.4053 0002994  84.9065 275.2474 14.36361504443560
IRIDIUM 44              
1 25078U 97077B   25184.59552763  .00000259  00000+0  75687-4 0  9996
2 25078  86.3961 214.3282 0002258  42.1519 317.9854 14.40250953446068
IRIDIUM 45              
1 25104U 97082A   25184.61788523  .00010157  00000+0  36206-3 0  9991
2 25104  86.3575  39.9102 0113195 270.0753  88.7521 15.22772305454543
IRIDIUM 24              
1 25105U 97082B   25184.68631042  .00000340  00000+0  97257-4 0  9999
2 25105  86.3893  73.3026 0012612  32.6359 327.5618 14.42110989445591
IRIDIUM 51              
1 25262U 98018A   25184.66432478  .00026306  00000+0  56802-3 0  9993
2 25262  86.3822  47.6680 0084821 185.0544 174.9864 15.40534816449563
IRIDIUM 57              
1 25273U 98019B   25184.89684182  .00000282  00000+0  90464-4 0  9990
2 25273  86.3983 138.2634 0002325  84.6418 275.5044 14.35901860427184
